{
  "norad_id": 49330,
  "name": "SHIJIAN-21 (SJ-21)",
  "history": [
    {
      "epoch": "2026-03-28T23:05:32.553312Z",
      "apogee_km": 35987.47848591258,
      "perigee_km": 35583.427333622676,
      "latitude_deg": -4.229123011862799,
      "longitude_deg": 128.35921908462305,
      "height_km": 35714.61117714114,
      "semi_major_axis_km": 42163.58990976763,
      "eccentricity": 0.00479147,
      "inclination_deg": 4.9244,
      "raan_deg": 61.6252,
      "arg_perigee_deg": 170.2024,
      "mean_anomaly_deg": 68.8509,
      "mean_motion_rev_day": 1.00275859
    }
  ]
}